{
  "type": "FeatureCollection",
  "features": [
    {
      "type": "Feature",
      "properties": {
        "type": "garden",
        "name": "Garden A"
      },
      "geometry": {
        "coordinates": [
          [
            [
              121.069415,
              14.53879
            ],
            [
              121.069888,
              14.538776
            ],
            [
              121.069876,
              14.538393
            ],
            [
              121.069403,
              14.538394
            ],
            [
              121.069415,
              14.53879
            ]
          ]
        ],
        "type": "Polygon"
      },
      "id": "05fabeddb1fc5add4378ec43228fd260"
    },
    {
      "type": "Feature",
      "properties": {
        "type": "garden",
        "name": "Garden B"
      },
      "geometry": {
        "coordinates": [
          [
            [
              121.069928,
              14.538777
            ],
            [
              121.070611,
              14.538762
            ],
            [
              121.070609,
              14.538391
            ],
            [
              121.069919,
              14.53839
            ],
            [
              121.069928,
              14.538777
            ]
          ]
        ],
        "type": "Polygon"
      },
      "id": "260b3e6a7dadf2ec4d4dbf690d3dd177"
    },
    {
      "type": "Feature",
      "properties": {
        "type": "garden",
        "name": "Garden C"
      },
      "geometry": {
        "coordinates": [
          [
            [
              121.070769,
              14.538362
            ],
            [
              121.071787,
              14.538341
            ],
            [
              121.07189,
              14.538103
            ],
            [
              121.070762,
              14.53812
            ],
            [
              121.070769,
              14.538362
            ]
          ]
        ],
        "type": "Polygon"
      },
      "id": "3db83fe9c7a8b6d0663ba84b61662eb1"
    },
    {
      "type": "Feature",
      "properties": {
        "name": "Main Road - Central Loop",
        "type": "main",
        "highway": "primary",
        "oneway": false,
        "description": "Main central road connecting entrance to cemetery loop"
      },
      "geometry": {
        "type": "LineString",
        "coordinates": [
          [121.068655, 14.538215],
          [121.069128, 14.538134],
          [121.069891, 14.538123],
          [121.069929, 14.539526],
          [121.069925, 14.539417],
          [121.06943, 14.539427],
          [121.069378, 14.539381],
          [121.06933, 14.539137],
          [121.06932, 14.538877],
          [121.069342, 14.538827],
          [121.069406, 14.538807],
          [121.070623, 14.538781],
          [121.071977, 14.538766],
          [121.072071, 14.538792],
          [121.072213, 14.538879],
          [121.072266, 14.538873],
          [121.072315, 14.538786],
          [121.072591, 14.538088],
          [121.072698, 14.537876],
          [121.073245, 14.537386],
          [121.073448, 14.537161]
        ]
      }
    },
    {
      "type": "Feature",
      "properties": {
        "name": "Main Road - Eastern Branch",
        "type": "main",
        "highway": "primary",
        "oneway": false,
        "description": "Eastern branch of main road system"
      },
      "geometry": {
        "type": "LineString",
        "coordinates": [
          [121.071009, 14.537904],
          [121.070494, 14.538094],
          [121.069888, 14.538122],
          [121.069854, 14.537866],
          [121.070484, 14.537852],
          [121.070484, 14.537673],
          [121.069842, 14.537695],
          [121.069845, 14.537525],
          [121.070478, 14.537501],
          [121.070467, 14.537189],
          [121.069127, 14.537029]
        ]
      }
    },
    {
      "type": "Feature",
      "properties": {
        "name": "Main Road - Southern Branch",
        "type": "main",
        "highway": "primary",
        "oneway": false,
        "description": "Southern branch connecting to eastern road"
      },
      "geometry": {
        "type": "LineString",
        "coordinates": [
          [121.070482, 14.537674],
          [121.070477, 14.5375],
          [121.069468, 14.537538]
        ]
      }
    },
    {
      "type": "Feature",
      "properties": {
        "name": "Main Road - Dead End Branch",
        "type": "main",
        "highway": "primary",
        "oneway": false,
        "description": "Dead end road branch"
      },
      "geometry": {
        "type": "LineString",
        "coordinates": [
          [121.069841, 14.537524],
          [121.069848, 14.537411]
        ]
      }
    },
    {
      "type": "Feature",
      "properties": {
        "name": "Main Road - Western Loop",
        "type": "main",
        "highway": "primary",
        "oneway": false,
        "description": "Western loop road connecting to main system"
      },
      "geometry": {
        "type": "LineString",
        "coordinates": [
          [121.069434, 14.537879],
          [121.069852, 14.53787],
          [121.069844, 14.537695],
          [121.06944, 14.537716]
        ]
      }
    },
    {
      "type": "Feature",
      "properties": {
        "name": "Main Road - Northern Extension",
        "type": "main",
        "highway": "primary",
        "oneway": false,
        "description": "Northern extension of main road"
      },
      "geometry": {
        "type": "LineString",
        "coordinates": [
          [121.071287, 14.539065],
          [121.071284, 14.538775]
        ]
      }
    },
    {
      "type": "Feature",
      "properties": {
        "name": "Main Road - Far Western Branch",
        "type": "main",
        "highway": "primary",
        "oneway": false,
        "description": "Far western branch connecting to main loop"
      },
      "geometry": {
        "type": "LineString",
        "coordinates": [
          [121.072582, 14.538089],
          [121.071937, 14.537858],
          [121.071691, 14.537686],
          [121.071545, 14.537557],
          [121.071247, 14.537185],
          [121.071094, 14.536974],
          [121.071039, 14.536961],
          [121.071, 14.537008],
          [121.071014, 14.537335],
          [121.071009, 14.537903],
          [121.071337, 14.537872],
          [121.071943, 14.537859]
        ]
      }
    },
    {
      "type": "Feature",
      "properties": {
        "name": "Path Way - Garden Access North",
        "type": "pathway",
        "highway": "footway",
        "oneway": false,
        "description": "Access path to northern garden areas"
      },
      "geometry": {
        "type": "LineString",
        "coordinates": [
          [121.069331, 14.539142],
          [121.069915, 14.539121],
          [121.070621, 14.539106],
          [121.070621, 14.538781],
          [121.070622, 14.538374],
          [121.069391, 14.538384],
          [121.069388, 14.538127]
        ]
      }
    },
    {
      "type": "Feature",
      "properties": {
        "name": "Path Way - Garden Access South",
        "type": "pathway",
        "highway": "footway",
        "oneway": false,
        "description": "Access path to southern garden areas"
      },
      "geometry": {
        "type": "LineString",
        "coordinates": [
          [121.069403, 14.538808],
          [121.069393, 14.538385]
        ]
      }
    },
    {
      "type": "Feature",
      "properties": {
        "name": "Path Way - Eastern Connector",
        "type": "pathway",
        "highway": "footway",
        "oneway": false,
        "description": "Connects eastern roads to main system"
      },
      "geometry": {
        "type": "LineString",
        "coordinates": [
          [121.071675, 14.538981],
          [121.071666, 14.538358],
          [121.070754, 14.538375],
          [121.070745, 14.538003],
          [121.070724, 14.5369]
        ]
      }
    },
    {
      "type": "Feature",
      "properties": {
        "name": "Path Way - Western Connector",
        "type": "pathway",
        "highway": "footway",
        "oneway": false,
        "description": "Connects western roads to main system"
      },
      "geometry": {
        "type": "LineString",
        "coordinates": [
          [121.072697, 14.537879],
          [121.072603, 14.537814],
          [121.07248, 14.537764],
          [121.072106, 14.537616],
          [121.07175, 14.537401],
          [121.071477, 14.537036],
          [121.071221, 14.536659],
          [121.071429, 14.536553]
        ]
      }
    },
    {
      "type": "Feature",
      "properties": {
        "name": "Path Way - Cross Connector 1",
        "type": "pathway",
        "highway": "footway",
        "oneway": false,
        "description": "Cross connector between main roads"
      },
      "geometry": {
        "type": "LineString",
        "coordinates": [
          [121.070729, 14.537339],
          [121.071013, 14.537338]
        ]
      }
    },
    {
      "type": "Feature",
      "properties": {
        "name": "Path Way - Cross Connector 2",
        "type": "pathway",
        "highway": "footway",
        "oneway": false,
        "description": "Cross connector between main roads"
      },
      "geometry": {
        "type": "LineString",
        "coordinates": [
          [121.071328, 14.538775],
          [121.071329, 14.538364]
        ]
      }
    },
    {
      "type": "Feature",
      "properties": {
        "name": "Path Way - Garden Connector",
        "type": "pathway",
        "highway": "footway",
        "oneway": false,
        "description": "Connects gardens to main roads"
      },
      "geometry": {
        "type": "LineString",
        "coordinates": [
          [121.070481, 14.537758],
          [121.07074, 14.537746]
        ]
      }
    },
    {
      "type": "Feature",
      "properties": {
        "name": "Path Way - Garden Access East",
        "type": "pathway",
        "highway": "footway",
        "oneway": false,
        "description": "Access to eastern garden areas"
      },
      "geometry": {
        "type": "LineString",
        "coordinates": [
          [121.070727, 14.538779],
          [121.070721, 14.538374],
          [121.070754, 14.538371]
        ]
      }
    },
    {
      "type": "Feature",
      "properties": {
        "name": "Path Way - Garden Access West",
        "type": "pathway",
        "highway": "footway",
        "oneway": false,
        "description": "Access to western garden areas"
      },
      "geometry": {
        "type": "LineString",
        "coordinates": [
          [121.072508, 14.538299],
          [121.071915, 14.538062]
        ]
      }
    },
    {
      "type": "Feature",
      "properties": {
        "name": "Path Way - Garden Cross Access",
        "type": "pathway",
        "highway": "footway",
        "oneway": false,
        "description": "Cross access to garden areas"
      },
      "geometry": {
        "type": "LineString",
        "coordinates": [
          [121.070723, 14.538497],
          [121.071668, 14.538486]
        ]
      }
    },
    {
      "type": "Feature",
      "properties": {
        "name": "Path Way - Western Garden Access",
        "type": "pathway",
        "highway": "footway",
        "oneway": false,
        "description": "Access to western garden areas"
      },
      "geometry": {
        "type": "LineString",
        "coordinates": [
          [121.072039, 14.538783],
          [121.072278, 14.538205],
          [121.072364, 14.538011],
          [121.072483, 14.537764],
          [121.073094, 14.537206]
        ]
      }
    },
    {
      "type": "Feature",
      "properties": {
        "name": "Path Way - Garden Branch Access",
        "type": "pathway",
        "highway": "footway",
        "oneway": false,
        "description": "Branch access to garden areas"
      },
      "geometry": {
        "type": "LineString",
        "coordinates": [
          [121.070498, 14.538374],
          [121.070499, 14.538098],
          [121.070486, 14.537842]
        ]
      }
    },
    {
      "type": "Feature",
      "properties": {
        "name": "Path Way - Chapel Access",
        "type": "pathway",
        "highway": "footway",
        "oneway": false,
        "description": "Access path to chapel"
      },
      "geometry": {
        "type": "LineString",
        "coordinates": [
          [121.071546, 14.53756],
          [121.071749, 14.5374],
          [121.071958, 14.537223]
        ]
      }
    },
    {
      "type": "Feature",
      "properties": {
        "name": "Path Way - Service Access",
        "type": "pathway",
        "highway": "footway",
        "oneway": false,
        "description": "Service access path"
      },
      "geometry": {
        "type": "LineString",
        "coordinates": [
          [121.070467, 14.537193],
          [121.070475, 14.537006]
        ]
      }
    },
    {
      "type": "Feature",
      "properties": {
        "name": "Path Way - Garden Service Access",
        "type": "pathway",
        "highway": "footway",
        "oneway": false,
        "description": "Service access to garden areas"
      },
      "geometry": {
        "type": "LineString",
        "coordinates": [
          [121.071439, 14.538099],
          [121.071443, 14.53787]
        ]
      }
    },
    {
      "type": "Feature",
      "properties": {
        "name": "Path Way - Western Garden Service",
        "type": "pathway",
        "highway": "footway",
        "oneway": false,
        "description": "Service access to western gardens"
      },
      "geometry": {
        "type": "LineString",
        "coordinates": [
          [121.071249, 14.537194],
          [121.071478, 14.53704],
          [121.071695, 14.536883]
        ]
      }
    },
    {
      "type": "Feature",
      "properties": {
        "name": "Path Way - Extended Western Access",
        "type": "pathway",
        "highway": "footway",
        "oneway": false,
        "description": "Extended access to western areas"
      },
      "geometry": {
        "type": "LineString",
        "coordinates": [
          [121.072135, 14.538832],
          [121.072378, 14.538243],
          [121.072471, 14.538051],
          [121.072602, 14.537812],
          [121.073169, 14.537286],
          [121.072912, 14.537004]
        ]
      }
    },
    {
      "type": "Feature",
      "properties": {
        "name": "Path Way - Garden Connector North",
        "type": "pathway",
        "highway": "footway",
        "oneway": false,
        "description": "Connects northern garden areas"
      },
      "geometry": {
        "type": "LineString",
        "coordinates": [
          [121.071663, 14.538359],
          [121.071802, 14.538356]
        ]
      }
    },
    {
      "type": "Feature",
      "properties": {
        "name": "Path Way - Garden Connector South",
        "type": "pathway",
        "highway": "footway",
        "oneway": false,
        "description": "Connects southern garden areas"
      },
      "geometry": {
        "type": "LineString",
        "coordinates": [
          [121.070621, 14.538377],
          [121.070721, 14.538377]
        ]
      }
    },
    {
      "type": "Feature",
      "properties": {
        "name": "Path Way - Extended Garden Access",
        "type": "pathway",
        "highway": "footway",
        "oneway": false,
        "description": "Extended access to garden areas"
      },
      "geometry": {
        "type": "LineString",
        "coordinates": [
          [121.071961, 14.538771],
          [121.071979, 14.538359],
          [121.071802, 14.538357],
          [121.071991, 14.537877],
          [121.072207, 14.537378]
        ]
      }
    },
    {
      "type": "Feature",
      "properties": {
        "name": "Path Way - Garden Cross Connector",
        "type": "pathway",
        "highway": "footway",
        "oneway": false,
        "description": "Cross connector for garden access"
      },
      "geometry": {
        "type": "LineString",
        "coordinates": [
          [121.070744, 14.538112],
          [121.071906, 14.538092]
        ]
      }
    },
    {
      "type": "Feature",
      "properties": {
        "name": "Path Way - Western Extension",
        "type": "pathway",
        "highway": "footway",
        "oneway": false,
        "description": "Western extension path"
      },
      "geometry": {
        "type": "LineString",
        "coordinates": [
          [121.07325, 14.537378],
          [121.073169, 14.537287]
        ]
      }
    },
    {
      "type": "Feature",
      "properties": {
        "name": "Path Way - Alternative Western Access",
        "type": "pathway",
        "highway": "footway",
        "oneway": false,
        "description": "Alternative access to western areas"
      },
      "geometry": {
        "type": "LineString",
        "coordinates": [
          [121.071037, 14.536959],
          [121.071031, 14.536867],
          [121.071041, 14.536795],
          [121.071092, 14.53673],
          [121.07122, 14.536657]
        ]
      }
    },
    {
      "type": "Feature",
      "properties": {
        "name": "Restroom 1",
        "type": "landmark"
      },
      "geometry": {
        "coordinates": [
          121.071879,
          14.538307
        ],
        "type": "Point"
      },
      "id": "b4453270e967367e8ccb13c5e0fb34fa"
    },
    {
      "type": "Feature",
      "properties": {
        "name": "Restroom 2",
        "type": "landmark"
      },
      "geometry": {
        "coordinates": [
          121.072004,
          14.538719
        ],
        "type": "Point"
      },
      "id": "c90698800cf84c81ae7b62dc6ca1613f"
    },
    {
      "type": "Feature",
      "properties": {
        "name": "Restroom 3",
        "type": "landmark"
      },
      "geometry": {
        "coordinates": [
          121.071708,
          14.539057
        ],
        "type": "Point"
      },
      "id": "b03f0bcf0a872fdeada88d0e5933768d"
    },
    {
      "type": "Feature",
      "properties": {
        "name": "Chapel",
        "type": "landmark"
      },
      "geometry": {
        "coordinates": [
          121.071317,
          14.537649
        ],
        "type": "Point"
      },
      "id": "cd7021b0fac89c56ef83a77ab14437d3"
    },
    {
      "type": "Feature",
      "properties": {
        "name": "Columbarium",
        "type": "landmark"
      },
      "geometry": {
        "coordinates": [
          121.069129,
          14.538037
        ],
        "type": "Point"
      },
      "id": "d83a411b09ff0767e7e240c5b2accf39"
    },
    {
      "type": "Feature",
      "properties": {
        "name": "Main Building",
        "type": "landmark"
      },
      "geometry": {
        "coordinates": [
          121.069217,
          14.538334
        ],
        "type": "Point"
      },
      "id": "d9286a6a9716499157b7d6db2fbe93b1"
    }
  ]
}
