{
    "type": "FeatureCollection",
    "features": [
      {
        "type": "Feature",
        "id": "garden-a",
        "properties": {
          "name": "Garden A",
          "category": "garden"
        },
        "geometry": {
          "type": "Polygon",
          "coordinates": [[
            [121.069415, 14.53879],
            [121.069888, 14.538776],
            [121.069876, 14.538393],
            [121.069403, 14.538394],
            [121.069415, 14.53879]
          ]]
        }
      },
      {
        "type": "Feature",
        "id": "garden-b",
        "properties": {
          "name": "Garden B",
          "category": "garden"
        },
        "geometry": {
          "type": "Polygon",
          "coordinates": [[
            [121.069928, 14.538777],
            [121.070611, 14.538762],
            [121.070609, 14.538391],
            [121.069919, 14.53839],
            [121.069928, 14.538777]
          ]]
        }
      },
      {
        "type": "Feature",
        "id": "garden-c",
        "properties": {
          "name": "Garden C",
          "category": "garden"
        },
        "geometry": {
          "type": "Polygon",
          "coordinates": [[
            [121.070769, 14.538362],
            [121.071787, 14.538341],
            [121.07189, 14.538103],
            [121.070762, 14.53812],
            [121.070769, 14.538362]
          ]]
        }
      }
    ]
  }
  